[{"OBJECT_NAME":"SCATSAT 1","OBJECT_ID":"2016-059H","EPOCH":"2026-03-09T17:18:57.175776","MEAN_MOTION":14.7926349,"ECCENTRICITY":0.00544061,"INCLINATION":98.1298,"RA_OF_ASC_NODE":131.4325,"ARG_OF_PERICENTER":207.4011,"MEAN_ANOMALY":152.4328,"EPHEMERIS_TYPE":0,"CLASSIFICATION_TYPE":"U","NORAD_CAT_ID":41790,"ELEMENT_SET_NO":999,"REV_AT_EPOCH":8688,"BSTAR":0.00025357446,"MEAN_MOTION_DOT":1.875e-5,"MEAN_MOTION_DDOT":0},{"OBJECT_NAME":"CZ-6A DEB","OBJECT_ID":"2022-151VY","EPOCH":"2026-03-09T17:16:21.331776","MEAN_MOTION":14.78228765,"ECCENTRICITY":0.00676768,"INCLINATION":98.6381,"RA_OF_ASC_NODE":137.875,"ARG_OF_PERICENTER":209.7271,"MEAN_ANOMALY":150.0086,"EPHEMERIS_TYPE":0,"CLASSIFICATION_TYPE":"U","NORAD_CAT_ID":55207,"ELEMENT_SET_NO":999,"REV_AT_EPOCH":17100,"BSTAR":0.0029785208,"MEAN_MOTION_DOT":0.00022453,"MEAN_MOTION_DDOT":0}]
